{"fetched_at":"2026-07-17T17:38:01.871Z","source":"https://celestrak.org/NORAD/elements/gp.php?GROUP=stations&FORMAT=JSON","constellation":"crewed-vehicles","records":[{"OBJECT_NAME":"SOYUZ-MS 28","OBJECT_ID":"2025-275A","EPOCH":"2026-07-17T06:00:20.087136","CLASSIFICATION_TYPE":"U","MEAN_MOTION":15.49030578,"ECCENTRICITY":0.00067955,"INCLINATION":51.6315,"RA_OF_ASC_NODE":151.3159,"ARG_OF_PERICENTER":305.6667,"MEAN_ANOMALY":54.3688,"EPHEMERIS_TYPE":0,"NORAD_CAT_ID":66664,"ELEMENT_SET_NO":999,"REV_AT_EPOCH":57542,"BSTAR":0.000073577935,"MEAN_MOTION_DOT":0.0000361,"MEAN_MOTION_DDOT":0},{"OBJECT_NAME":"CREW DRAGON 12","OBJECT_ID":"2026-031A","EPOCH":"2026-07-17T06:00:20.087136","CLASSIFICATION_TYPE":"U","MEAN_MOTION":15.49030578,"ECCENTRICITY":0.00067955,"INCLINATION":51.6315,"RA_OF_ASC_NODE":151.3159,"ARG_OF_PERICENTER":305.6667,"MEAN_ANOMALY":54.3688,"EPHEMERIS_TYPE":0,"NORAD_CAT_ID":67796,"ELEMENT_SET_NO":999,"REV_AT_EPOCH":57556,"BSTAR":0.000073577935,"MEAN_MOTION_DOT":0.0000361,"MEAN_MOTION_DDOT":0},{"OBJECT_NAME":"SHENZHOU-23 (SZ-23)","OBJECT_ID":"2026-113A","EPOCH":"2026-07-17T06:23:04.742304","CLASSIFICATION_TYPE":"U","MEAN_MOTION":15.58142333,"ECCENTRICITY":0.00019631,"INCLINATION":41.4689,"RA_OF_ASC_NODE":139.2812,"ARG_OF_PERICENTER":303.2337,"MEAN_ANOMALY":56.8313,"EPHEMERIS_TYPE":0,"NORAD_CAT_ID":69180,"ELEMENT_SET_NO":999,"REV_AT_EPOCH":29737,"BSTAR":0.000019326917,"MEAN_MOTION_DOT":0.00001169,"MEAN_MOTION_DDOT":0}]}
