SOYUZ-MS 28             
1 66664U 25275A   26198.25023249  .00003610  00000+0  73578-4 0  9995
2 66664  51.6315 151.3159 0006795 305.6667  54.3688 15.49030578575425
CREW DRAGON 12          
1 67796U 26031A   26198.25023249  .00003610  00000+0  73578-4 0  9993
2 67796  51.6315 151.3159 0006795 305.6667  54.3688 15.49030578575567
SHENZHOU-23 (SZ-23)     
1 69180U 26113A   26198.26602711  .00001169  00000+0  19327-4 0  9990
2 69180  41.4689 139.2812 0001963 303.2337  56.8313 15.58142333297373
